STARLINK-38005          
1 69677U 26145A   26196.04965896  .00148485  00000+0  97735-3 0  9997
2 69677  97.2831  42.8768 0001503  67.9431 292.1994 15.75232742  3154
STARLINK-38009          
1 69678U 26145B   26196.11142456  .00172312  00000+0  11332-2 0  9999
2 69678  97.2823  42.9459 0002295  81.7873 278.3652 15.75184499  3160
STARLINK-37998          
1 69679U 26145C   26196.16670139 -.00117073  00000+0 -79459-3 0  9999
2 69679  97.2835  43.0100 0001398  93.3579 234.1122 15.75196491  4421
STARLINK-37994          
1 69680U 26145D   26196.11036578  .00178400  00000+0  11727-2 0  9991
2 69680  97.2829  42.9474 0002191  80.4292 279.7221 15.75177468  3167
STARLINK-37992          
1 69681U 26145E   26196.11001389  .00160623  00000+0  10580-2 0  9998
2 69681  97.2826  42.9471 0002525  69.3344 290.8192 15.75179642  3164
STARLINK-37997          
1 69682U 26145F   26196.10930409  .00162757  00000+0  10719-2 0  9996
2 69682  97.2821  42.9490 0001461  86.3453 273.7979 15.75180110  3164
STARLINK-37990          
1 69683U 26145G   26196.16670139 -.00192415  00000+0 -13137-2 0  9997
2 69683  97.2838  43.0090 0001382  89.0140 234.3771 15.75271053  4426
STARLINK-37951          
1 69684U 26145H   26196.16670139 -.00162121  00000+0 -11035-2 0  9994
2 69684  97.2837  43.0115 0001457  98.6275 230.7621 15.75257033  4428
STARLINK-37957          
1 69685U 26145J   26196.10753256  .00171093  00000+0  11246-2 0  9991
2 69685  97.2821  42.9512 0001798 100.3469 259.7999 15.75199308  3164
STARLINK-37968          
1 69686U 26145K   26196.10153958  .00124719  00000+0  82621-3 0  9994
2 69686  97.2834  42.9604 0001169  88.6647 271.4752 15.75152874  3164
STARLINK-37977          
1 69687U 26145L   26196.10083484  .00170314  00000+0  11214-2 0  9992
2 69687  97.2835  42.9617 0001435  88.7383 271.4047 15.75162357  3168
STARLINK-37908          
1 69688U 26145M   26196.09871758  .00175676  00000+0  11556-2 0  9995
2 69688  97.2830  42.9649 0001577  87.0659 273.0787 15.75169784  3164
STARLINK-37979          
1 69689U 26145N   26196.09836168  .00192755  00000+0  12651-2 0  9996
2 69689  97.2828  42.9650 0001351 129.7232 230.4152 15.75174670  3168
STARLINK-37940          
1 69690U 26145P   26196.09730632  .00126027  00000+0  83419-3 0  9997
2 69690  97.2831  42.9664 0001623  84.6205 275.5246 15.75167529  3169
STARLINK-37961          
1 69691U 26145Q   26196.09413039  .00164218  00000+0  10816-2 0  9991
2 69691  97.2829  42.9705 0001743 100.4659 259.6802 15.75173022  3162
STARLINK-37787          
1 69692U 26145R   26196.09201250  .00119581  00000+0  79096-3 0  9991
2 69692  97.2834  42.9724 0001164 104.3665 255.7730 15.75203478  3163
STARLINK-37962          
1 69693U 26145S   26196.09025252  .00147098  00000+0  97054-3 0  9996
2 69693  97.2828  42.9757 0002624  79.2874 280.8686 15.75179257  3163
STARLINK-37953          
1 69694U 26145T   26196.02954323  .00135427  00000+0  89476-3 0  9992
2 69694  97.2836  42.9063 0001660 100.6155 259.5297 15.75183065  3155
STARLINK-37926          
1 69695U 26145U   26196.16670139 -.00227418  00000+0 -15578-2 0  9993
2 69695  97.2833  43.0526 0001756  82.9976 338.3787 15.75290176  4421
STARLINK-37959          
1 69696U 26145V   26196.09131022  .00132573  00000+0  87633-3 0  9996
2 69696  97.2829  42.9733 0002238  67.0785 293.0716 15.75179108  3163
STARLINK-37976          
1 69697U 26145W   26196.08848502  .00136023  00000+0  89893-3 0  9998
2 69697  97.2835  42.9777 0001707  79.3934 280.7523 15.75175438  3162
STARLINK-37912          
1 69698U 26145X   26196.08742675  .00166546  00000+0  10965-2 0  9999
2 69698  97.2830  42.9810 0002019  78.9012 281.2480 15.75175592  3164
STARLINK-37974          
1 69699U 26145Y   26196.08671424  .00177786  00000+0  11682-2 0  9998
2 69699  97.2834  42.9812 0000962 142.3096 217.8237 15.75188834  3162
STARLINK-37955          
1 69700U 26145Z   26196.14777712  .00145863  00000+0  96129-3 0  9996
2 69700  97.2832  43.0511 0001501  96.9262 263.2173 15.75211485  3174
STRIX-8                 
1 69701U 26146A   26195.95332838  .00002416  00000+0  18330-3 0  9996
2 69701  41.9903  14.4328 0007187  20.8429 339.2690 15.04433217  2746
ELECTRON R/B            
1 69702U 26146B   26195.78765164  .00380339  52548-4  94501-3 0  9996
2 69702  42.0744   5.1648 0170108  17.3101 343.3460 15.74795891  2844
ELECTRON KICK STAGE R/B 
1 69703U 26146C   26195.68161691  .00002119  00000+0  16032-3 0  9992
2 69703  41.9886  15.8537 0009085  20.1035 340.0148 15.04940887  2700
STARLINK-38055          
1 69704U 26147A   26196.10592672  .00156847  00000+0  80400-3 0  9997
2 69704  97.2829 232.4864 0000492  98.8724 261.2600 15.80841921  3848
STARLINK-37898          
1 69705U 26147B   26196.04180172  .00284363  00000+0  14305-2 0  9994
2 69705  97.2835 232.4215 0001322  83.6910 276.4509 15.80922505  3831
STARLINK-37970          
1 69706U 26147C   26196.04105025  .00260828  00000+0  13162-2 0  9999
2 69706  97.2829 232.4225 0001124 112.0066 248.1322 15.80913938  3834
