OBJECT_NAME,OBJECT_ID,EPOCH,MEAN_MOTION,ECCENTRICITY,INCLINATION,RA_OF_ASC_NODE,ARG_OF_PERICENTER,MEAN_ANOMALY,EPHEMERIS_TYPE,CLASSIFICATION_TYPE,NORAD_CAT_ID,ELEMENT_SET_NO,REV_AT_EPOCH,BSTAR,MEAN_MOTION_DOT,MEAN_MOTION_DDOT
STARLINK-38005,2026-145A,2026-07-15T01:11:30.534144,15.75232742,.0001503,97.2831,42.8768,67.9431,292.1994,0,U,69677,999,315,.97735E-3,.148485E-2,0
STARLINK-38009,2026-145B,2026-07-15T02:40:27.081984,15.75184499,.0002295,97.2823,42.9459,81.7873,278.3652,0,U,69678,999,316,.11332E-2,.172312E-2,0
STARLINK-37998,2026-145C,2026-07-15T04:00:03.000096,15.75196491,.0001398,97.2835,43.0100,93.3579,234.1122,0,U,69679,999,442,-.79459E-3,-.117073E-2,0
STARLINK-37994,2026-145D,2026-07-15T02:38:55.603392,15.75177468,.0002191,97.2829,42.9474,80.4292,279.7221,0,U,69680,999,316,.11727E-2,.1784E-2,0
STARLINK-37992,2026-145E,2026-07-15T02:38:25.200096,15.75179642,.0002525,97.2826,42.9471,69.3344,290.8192,0,U,69681,999,316,.1058E-2,.160623E-2,0
STARLINK-37997,2026-145F,2026-07-15T02:37:23.873376,15.75180110,.0001461,97.2821,42.9490,86.3453,273.7979,0,U,69682,999,316,.10719E-2,.162757E-2,0
STARLINK-37990,2026-145G,2026-07-15T04:00:03.000096,15.75271053,.0001382,97.2838,43.0090,89.0140,234.3771,0,U,69683,999,442,-.13137E-2,-.192415E-2,0
STARLINK-37951,2026-145H,2026-07-15T04:00:03.000096,15.75257033,.0001457,97.2837,43.0115,98.6275,230.7621,0,U,69684,999,442,-.11035E-2,-.162121E-2,0
STARLINK-37957,2026-145J,2026-07-15T02:34:50.813184,15.75199308,.0001798,97.2821,42.9512,100.3469,259.7999,0,U,69685,999,316,.11246E-2,.171093E-2,0
STARLINK-37968,2026-145K,2026-07-15T02:26:13.019712,15.75152874,.0001169,97.2834,42.9604,88.6647,271.4752,0,U,69686,999,316,.82621E-3,.124719E-2,0
STARLINK-37977,2026-145L,2026-07-15T02:25:12.130176,15.75162357,.0001435,97.2835,42.9617,88.7383,271.4047,0,U,69687,999,316,.11214E-2,.170314E-2,0
STARLINK-37908,2026-145M,2026-07-15T02:22:09.198912,15.75169784,.0001577,97.2830,42.9649,87.0659,273.0787,0,U,69688,999,316,.11556E-2,.175676E-2,0
STARLINK-37979,2026-145N,2026-07-15T02:21:38.449152,15.75174670,.0001351,97.2828,42.9650,129.7232,230.4152,0,U,69689,999,316,.12651E-2,.192755E-2,0
STARLINK-37940,2026-145P,2026-07-15T02:20:07.266048,15.75167529,.0001623,97.2831,42.9664,84.6205,275.5246,0,U,69690,999,316,.83419E-3,.126027E-2,0
STARLINK-37961,2026-145Q,2026-07-15T02:15:32.865696,15.75173022,.0001743,97.2829,42.9705,100.4659,259.6802,0,U,69691,999,316,.10816E-2,.164218E-2,0
STARLINK-37787,2026-145R,2026-07-15T02:12:29.880000,15.75203478,.0001164,97.2834,42.9724,104.3665,255.7730,0,U,69692,999,316,.79096E-3,.119581E-2,0
STARLINK-37962,2026-145S,2026-07-15T02:09:57.817728,15.75179257,.0002624,97.2828,42.9757,79.2874,280.8686,0,U,69693,999,316,.97054E-3,.147098E-2,0
STARLINK-37953,2026-145T,2026-07-15T00:42:32.535072,15.75183065,.000166,97.2836,42.9063,100.6155,259.5297,0,U,69694,999,315,.89476E-3,.135427E-2,0
STARLINK-37926,2026-145U,2026-07-15T04:00:03.000096,15.75290176,.0001756,97.2833,43.0526,82.9976,338.3787,0,U,69695,999,442,-.15578E-2,-.227418E-2,0
STARLINK-37959,2026-145V,2026-07-15T02:11:29.203008,15.75179108,.0002238,97.2829,42.9733,67.0785,293.0716,0,U,69696,999,316,.87633E-3,.132573E-2,0
STARLINK-37976,2026-145W,2026-07-15T02:07:25.105728,15.75175438,.0001707,97.2835,42.9777,79.3934,280.7523,0,U,69697,999,316,.89893E-3,.136023E-2,0
STARLINK-37912,2026-145X,2026-07-15T02:05:53.671200,15.75175592,.0002019,97.2830,42.9810,78.9012,281.2480,0,U,69698,999,316,.10965E-2,.166546E-2,0
STARLINK-37974,2026-145Y,2026-07-15T02:04:52.110336,15.75188834,.0000962,97.2834,42.9812,142.3096,217.8237,0,U,69699,999,316,.11682E-2,.177786E-2,0
STARLINK-37955,2026-145Z,2026-07-15T03:32:47.943168,15.75211485,.0001501,97.2832,43.0511,96.9262,263.2173,0,U,69700,999,317,.96129E-3,.145863E-2,0
STRIX-8,2026-146A,2026-07-14T22:52:47.572032,15.04433217,.0007187,41.9903,14.4328,20.8429,339.2690,0,U,69701,999,274,.1833E-3,.2416E-4,0
ELECTRON R/B,2026-146B,2026-07-14T18:54:13.101696,15.74795891,.01701089,42.0744,5.1648,17.3101,343.3460,0,U,69702,999,284,.9450115E-3,.380339E-2,.5254778E-4
ELECTRON KICK STAGE R/B,2026-146C,2026-07-14T16:21:31.701024,15.04940887,.00090853,41.9886,15.8537,20.1035,340.0148,0,U,69703,999,270,.16031706E-3,.2119E-4,0
STARLINK-38055,2026-147A,2026-07-15T02:32:32.068608,15.80841921,.0000492,97.2829,232.4864,98.8724,261.2600,0,U,69704,999,384,.804E-3,.156847E-2,0
STARLINK-37898,2026-147B,2026-07-15T01:00:11.668608,15.80922505,.0001322,97.2835,232.4215,83.6910,276.4509,0,U,69705,999,383,.14305E-2,.284363E-2,0
STARLINK-37970,2026-147C,2026-07-15T00:59:06.741600,15.80913938,.0001124,97.2829,232.4225,112.0066,248.1322,0,U,69706,999,383,.13162E-2,.260828E-2,0
